{
    "links": {
        "self": "http://www.neowsapp.com/rest/v1/neo/3721162?api_key=iIulBulltgU6a56xZRHN4H3l9WmuAYTsLGpBGhQ2"
    },
    "id": "3721162",
    "neo_reference_id": "3721162",
    "name": "(2015 LP21)",
    "designation": "2015 LP21",
    "nasa_jpl_url": "http://ssd.jpl.nasa.gov/sbdb.cgi?sstr=3721162",
    "absolute_magnitude_h": 24.5,
    "estimated_diameter": {
        "kilometers": {
            "estimated_diameter_min": 0.0334622374,
            "estimated_diameter_max": 0.0748238376
        },
        "meters": {
            "estimated_diameter_min": 33.4622374455,
            "estimated_diameter_max": 74.8238376074
        },
        "miles": {
            "estimated_diameter_min": 0.0207924639,
            "estimated_diameter_max": 0.0464933628
        },
        "feet": {
            "estimated_diameter_min": 109.7842471007,
            "estimated_diameter_max": 245.4850393757
        }
    },
    "is_potentially_hazardous_asteroid": false,
    "close_approach_data": [
        {
            "close_approach_date": "2015-06-21",
            "close_approach_date_full": "2015-Jun-21 03:21",
            "epoch_date_close_approach": 1434856860000,
            "relative_velocity": {
                "kilometers_per_second": "9.2808808504",
                "kilometers_per_hour": "33411.1710614228",
                "miles_per_hour": "20760.4023742491"
            },
            "miss_distance": {
                "astronomical": "0.0899886526",
                "lunar": "35.0055858614",
                "kilometers": "13462110.753129962",
                "miles": "8364967.7332869956"
            },
            "orbiting_body": "Earth"
        }
    ],
    "orbital_data": {
        "orbit_id": "7",
        "orbit_determination_date": "2017-04-06 08:33:09",
        "first_observation_date": "2015-06-14",
        "last_observation_date": "2015-07-13",
        "data_arc_in_days": 29,
        "observations_used": 36,
        "orbit_uncertainty": "7",
        "minimum_orbit_intersection": ".0826205",
        "jupiter_tisserand_invariant": "3.709",
        "epoch_osculation": "2459000.5",
        "eccentricity": ".4448194748408994",
        "semi_major_axis": "1.969631981434803",
        "inclination": "14.4290369128903",
        "ascending_node_longitude": "263.0914922616643",
        "orbital_period": "1009.662108483855",
        "perihelion_distance": "1.093501317823134",
        "perihelion_argument": "11.68502217992468",
        "aphelion_distance": "2.845762645046472",
        "perihelion_time": "2459221.071702020142",
        "mean_anomaly": "281.3540727536167",
        "mean_motion": ".3565549276089888",
        "equinox": "J2000",
        "orbit_class": {
            "orbit_class_type": "AMO",
            "orbit_class_description": "Near-Earth asteroid orbits similar to that of 1221 Amor",
            "orbit_class_range": "1.017 AU < q (perihelion) < 1.3 AU"
        }
    },
    "is_sentry_object": false
}